[{"OBJECT_NAME":"STARLINK-32717","OBJECT_ID":"2025-003E","EPOCH":"2026-03-09T22:54:16.037856","MEAN_MOTION":15.27607852,"ECCENTRICITY":0.00010326,"INCLINATION":42.9971,"RA_OF_ASC_NODE":287.3395,"ARG_OF_PERICENTER":277.3665,"MEAN_ANOMALY":82.7069,"EPHEMERIS_TYPE":0,"CLASSIFICATION_TYPE":"U","NORAD_CAT_ID":62491,"ELEMENT_SET_NO":999,"REV_AT_EPOCH":6671,"BSTAR":0.0012106883,"MEAN_MOTION_DOT":0.00033232,"MEAN_MOTION_DDOT":0},{"OBJECT_NAME":"BANDWAGON-4 OBJECT M","OBJECT_ID":"2025-248M","EPOCH":"2026-03-09T00:50:26.830464","MEAN_MOTION":15.24295413,"ECCENTRICITY":0.00129441,"INCLINATION":45.4108,"RA_OF_ASC_NODE":294.9904,"ARG_OF_PERICENTER":207.5285,"MEAN_ANOMALY":152.4918,"EPHEMERIS_TYPE":0,"CLASSIFICATION_TYPE":"U","NORAD_CAT_ID":66304,"ELEMENT_SET_NO":999,"REV_AT_EPOCH":1803,"BSTAR":0.00095703617,"MEAN_MOTION_DOT":0.00023645,"MEAN_MOTION_DDOT":0}]
